[{"OBJECT_NAME":"STARLINK-2104","OBJECT_ID":"2021-005AM","EPOCH":"2026-03-09T21:54:21.353760","MEAN_MOTION":15.06426617,"ECCENTRICITY":0.00013635,"INCLINATION":53.0579,"RA_OF_ASC_NODE":30.8657,"ARG_OF_PERICENTER":64.8855,"MEAN_ANOMALY":295.2275,"EPHEMERIS_TYPE":0,"CLASSIFICATION_TYPE":"U","NORAD_CAT_ID":47384,"ELEMENT_SET_NO":999,"REV_AT_EPOCH":28349,"BSTAR":0.00031171909,"MEAN_MOTION_DOT":4.368e-5,"MEAN_MOTION_DDOT":0},{"OBJECT_NAME":"DIAMANT DEB","OBJECT_ID":"1967-014F","EPOCH":"2026-03-08T22:12:40.817952","MEAN_MOTION":14.36285339,"ECCENTRICITY":0.034388,"INCLINATION":38.9293,"RA_OF_ASC_NODE":272.8082,"ARG_OF_PERICENTER":97.8602,"MEAN_ANOMALY":266.1323,"EPHEMERIS_TYPE":0,"CLASSIFICATION_TYPE":"U","NORAD_CAT_ID":2685,"ELEMENT_SET_NO":999,"REV_AT_EPOCH":95305,"BSTAR":0.0015965488,"MEAN_MOTION_DOT":9.263e-5,"MEAN_MOTION_DDOT":0}]
